[{"OBJECT_NAME":"STARLINK-30506","OBJECT_ID":"2023-158X","EPOCH":"2026-03-05T23:57:45.800928","MEAN_MOTION":15.26914884,"ECCENTRICITY":0.00019417,"INCLINATION":43.0027,"RA_OF_ASC_NODE":48.0315,"ARG_OF_PERICENTER":331.0474,"MEAN_ANOMALY":29.027,"EPHEMERIS_TYPE":0,"CLASSIFICATION_TYPE":"U","NORAD_CAT_ID":58072,"ELEMENT_SET_NO":999,"REV_AT_EPOCH":13300,"BSTAR":0.0019197256,"MEAN_MOTION_DOT":0.00051874,"MEAN_MOTION_DDOT":0},{"OBJECT_NAME":"STARLINK-30604","OBJECT_ID":"2023-160A","EPOCH":"2026-03-06T03:02:32.093376","MEAN_MOTION":15.26734459,"ECCENTRICITY":0.00013152,"INCLINATION":43,"RA_OF_ASC_NODE":97.7752,"ARG_OF_PERICENTER":263.6791,"MEAN_ANOMALY":96.3911,"EPHEMERIS_TYPE":0,"CLASSIFICATION_TYPE":"U","NORAD_CAT_ID":58075,"ELEMENT_SET_NO":999,"REV_AT_EPOCH":13240,"BSTAR":-7.0548726e-5,"MEAN_MOTION_DOT":-2.151e-5,"MEAN_MOTION_DDOT":0},{"OBJECT_NAME":"STARLINK-30500","OBJECT_ID":"2023-160B","EPOCH":"2026-03-06T06:00:02.000160","MEAN_MOTION":15.26748684,"ECCENTRICITY":0.00013454,"INCLINATION":42.9995,"RA_OF_ASC_NODE":97.1892,"ARG_OF_PERICENTER":259.8961,"MEAN_ANOMALY":8.9885,"EPHEMERIS_TYPE":0,"CLASSIFICATION_TYPE":"U","NORAD_CAT_ID":58076,"ELEMENT_SET_NO":999,"REV_AT_EPOCH":568,"BSTAR":-6.8901063e-5,"MEAN_MOTION_DOT":-2.108e-5,"MEAN_MOTION_DDOT":0},{"OBJECT_NAME":"STARLINK-30613","OBJECT_ID":"2023-160C","EPOCH":"2026-03-06T04:47:18.870144","MEAN_MOTION":15.26741258,"ECCENTRICITY":0.00018785,"INCLINATION":43.0021,"RA_OF_ASC_NODE":97.4652,"ARG_OF_PERICENTER":295.0902,"MEAN_ANOMALY":64.9755,"EPHEMERIS_TYPE":0,"CLASSIFICATION_TYPE":"U","NORAD_CAT_ID":58077,"ELEMENT_SET_NO":999,"REV_AT_EPOCH":13242,"BSTAR":-0.00012892079,"MEAN_MOTION_DOT":-3.717e-5,"MEAN_MOTION_DDOT":0},{"OBJECT_NAME":"STARLINK-30597","OBJECT_ID":"2023-160D","EPOCH":"2026-03-05T03:19:02.666784","MEAN_MOTION":15.26700851,"ECCENTRICITY":5.948e-5,"INCLINATION":43,"RA_OF_ASC_NODE":103.2397,"ARG_OF_PERICENTER":238.213,"MEAN_ANOMALY":121.8664,"EPHEMERIS_TYPE":0,"CLASSIFICATION_TYPE":"U","NORAD_CAT_ID":58078,"ELEMENT_SET_NO":999,"REV_AT_EPOCH":13225,"BSTAR":0.00083230939,"MEAN_MOTION_DOT":0.00022106,"MEAN_MOTION_DDOT":0},{"OBJECT_NAME":"STARLINK-30598","OBJECT_ID":"2023-160E","EPOCH":"2026-03-06T06:00:02.000160","MEAN_MOTION":15.27584443,"ECCENTRICITY":8.87e-5,"INCLINATION":43.0003,"RA_OF_ASC_NODE":97.2799,"ARG_OF_PERICENTER":265.2351,"MEAN_ANOMALY":329.2089,"EPHEMERIS_TYPE":0,"CLASSIFICATION_TYPE":"U","NORAD_CAT_ID":58079,"ELEMENT_SET_NO":999,"REV_AT_EPOCH":577,"BSTAR":-0.00021294136,"MEAN_MOTION_DOT":-6.117e-5,"MEAN_MOTION_DDOT":0},{"OBJECT_NAME":"STARLINK-30603","OBJECT_ID":"2023-160F","EPOCH":"2026-03-06T03:23:46.796640","MEAN_MOTION":15.26733335,"ECCENTRICITY":0.00030879,"INCLINATION":43.0055,"RA_OF_ASC_NODE":97.8876,"ARG_OF_PERICENTER":305.5444,"MEAN_ANOMALY":54.5119,"EPHEMERIS_TYPE":0,"CLASSIFICATION_TYPE":"U","NORAD_CAT_ID":58080,"ELEMENT_SET_NO":999,"REV_AT_EPOCH":13240,"BSTAR":-1.0846323e-5,"MEAN_MOTION_DOT":-5.52e-6,"MEAN_MOTION_DDOT":0},{"OBJECT_NAME":"STARLINK-30602","OBJECT_ID":"2023-160G","EPOCH":"2026-03-06T06:00:02.000160","MEAN_MOTION":15.22907701,"ECCENTRICITY":0.00011544,"INCLINATION":43.0006,"RA_OF_ASC_NODE":97.4684,"ARG_OF_PERICENTER":287.4858,"MEAN_ANOMALY":221.0296,"EPHEMERIS_TYPE":0,"CLASSIFICATION_TYPE":"U","NORAD_CAT_ID":58081,"ELEMENT_SET_NO":999,"REV_AT_EPOCH":578,"BSTAR":-0.00030982955,"MEAN_MOTION_DOT":-7.65e-5,"MEAN_MOTION_DDOT":0},{"OBJECT_NAME":"STARLINK-30610","OBJECT_ID":"2023-160H","EPOCH":"2026-03-06T03:29:26.048832","MEAN_MOTION":15.26737829,"ECCENTRICITY":0.00015313,"INCLINATION":43.0031,"RA_OF_ASC_NODE":97.912,"ARG_OF_PERICENTER":278.4061,"MEAN_ANOMALY":81.6617,"EPHEMERIS_TYPE":0,"CLASSIFICATION_TYPE":"U","NORAD_CAT_ID":58082,"ELEMENT_SET_NO":999,"REV_AT_EPOCH":13240,"BSTAR":-3.3338651e-5,"MEAN_MOTION_DOT":-1.154e-5,"MEAN_MOTION_DDOT":0},{"OBJECT_NAME":"STARLINK-30551","OBJECT_ID":"2023-160J","EPOCH":"2026-03-06T03:23:51.842400","MEAN_MOTION":15.02539022,"ECCENTRICITY":0.00011739,"INCLINATION":42.9997,"RA_OF_ASC_NODE":99.5739,"ARG_OF_PERICENTER":278.4246,"MEAN_ANOMALY":81.6463,"EPHEMERIS_TYPE":0,"CLASSIFICATION_TYPE":"U","NORAD_CAT_ID":58083,"ELEMENT_SET_NO":999,"REV_AT_EPOCH":13238,"BSTAR":-1.9028035e-5,"MEAN_MOTION_DOT":-4.61e-6,"MEAN_MOTION_DDOT":0},{"OBJECT_NAME":"STARLINK-30586","OBJECT_ID":"2023-160K","EPOCH":"2026-03-06T03:19:04.065600","MEAN_MOTION":15.0254104,"ECCENTRICITY":5.344e-5,"INCLINATION":43.0018,"RA_OF_ASC_NODE":99.5563,"ARG_OF_PERICENTER":251.4291,"MEAN_ANOMALY":108.6493,"EPHEMERIS_TYPE":0,"CLASSIFICATION_TYPE":"U","NORAD_CAT_ID":58084,"ELEMENT_SET_NO":999,"REV_AT_EPOCH":13238,"BSTAR":-0.00010787648,"MEAN_MOTION_DOT":-1.66e-5,"MEAN_MOTION_DDOT":0},{"OBJECT_NAME":"STARLINK-30609","OBJECT_ID":"2023-160L","EPOCH":"2026-03-06T01:38:32.560224","MEAN_MOTION":15.02534581,"ECCENTRICITY":0.00014226,"INCLINATION":43.0022,"RA_OF_ASC_NODE":99.889,"ARG_OF_PERICENTER":271.1621,"MEAN_ANOMALY":88.9058,"EPHEMERIS_TYPE":0,"CLASSIFICATION_TYPE":"U","NORAD_CAT_ID":58085,"ELEMENT_SET_NO":999,"REV_AT_EPOCH":13237,"BSTAR":6.511422e-6,"MEAN_MOTION_DOT":-1.16e-6,"MEAN_MOTION_DDOT":0},{"OBJECT_NAME":"STARLINK-30583","OBJECT_ID":"2023-160M","EPOCH":"2026-03-06T04:45:11.018016","MEAN_MOTION":15.02535192,"ECCENTRICITY":0.00016258,"INCLINATION":43.0016,"RA_OF_ASC_NODE":99.1425,"ARG_OF_PERICENTER":267.1528,"MEAN_ANOMALY":92.9128,"EPHEMERIS_TYPE":0,"CLASSIFICATION_TYPE":"U","NORAD_CAT_ID":58086,"ELEMENT_SET_NO":999,"REV_AT_EPOCH":13239,"BSTAR":-0.00031330158,"MEAN_MOTION_DOT":-4.433e-5,"MEAN_MOTION_DDOT":0},{"OBJECT_NAME":"STARLINK-30557","OBJECT_ID":"2023-160N","EPOCH":"2026-03-06T04:43:37.225632","MEAN_MOTION":15.02527013,"ECCENTRICITY":4.019e-5,"INCLINATION":42.9998,"RA_OF_ASC_NODE":99.1342,"ARG_OF_PERICENTER":234.4788,"MEAN_ANOMALY":125.6017,"EPHEMERIS_TYPE":0,"CLASSIFICATION_TYPE":"U","NORAD_CAT_ID":58087,"ELEMENT_SET_NO":999,"REV_AT_EPOCH":13239,"BSTAR":-2.196813e-5,"MEAN_MOTION_DOT":-5.0e-6,"MEAN_MOTION_DDOT":0},{"OBJECT_NAME":"STARLINK-30591","OBJECT_ID":"2023-160P","EPOCH":"2026-03-06T02:54:32.237280","MEAN_MOTION":15.2673953,"ECCENTRICITY":9.898e-5,"INCLINATION":43.0016,"RA_OF_ASC_NODE":97.7286,"ARG_OF_PERICENTER":269.3348,"MEAN_ANOMALY":90.7389,"EPHEMERIS_TYPE":0,"CLASSIFICATION_TYPE":"U","NORAD_CAT_ID":58088,"ELEMENT_SET_NO":999,"REV_AT_EPOCH":13240,"BSTAR":-1.9793368e-5,"MEAN_MOTION_DOT":-7.9e-6,"MEAN_MOTION_DDOT":0},{"OBJECT_NAME":"STARLINK-30584","OBJECT_ID":"2023-160Q","EPOCH":"2026-03-06T06:00:02.000160","MEAN_MOTION":15.2754571,"ECCENTRICITY":7.722e-5,"INCLINATION":43.0035,"RA_OF_ASC_NODE":97.188,"ARG_OF_PERICENTER":260.5945,"MEAN_ANOMALY":9.3169,"EPHEMERIS_TYPE":0,"CLASSIFICATION_TYPE":"U","NORAD_CAT_ID":58089,"ELEMENT_SET_NO":999,"REV_AT_EPOCH":577,"BSTAR":-0.00012120467,"MEAN_MOTION_DOT":-3.592e-5,"MEAN_MOTION_DDOT":0}]
