STARLINK-30506          
1 58072U 23158X   26064.99844677  .00051874  00000+0  19197-2 0  9996
2 58072  43.0027  48.0315 0001941 331.0474  29.0270 15.26914884133003
STARLINK-30604          
1 58075U 23160A   26065.12676034 -.00002151  00000+0 -70549-4 0  9994
2 58075  43.0000  97.7752 0001315 263.6791  96.3911 15.26734459132400
STARLINK-30500          
1 58076U 23160B   26065.25002315 -.00002108  00000+0 -68901-4 0  9995
2 58076  42.9995  97.1892 0001345 259.8961   8.9885 15.26748684  5683
STARLINK-30613          
1 58077U 23160C   26065.19952396 -.00003717  00000+0 -12892-3 0  9996
2 58077  43.0021  97.4652 0001878 295.0902  64.9755 15.26741258132422
STARLINK-30597          
1 58078U 23160D   26064.13822531  .00022106  00000+0  83231-3 0  9993
2 58078  43.0000 103.2397 0000594 238.2130 121.8664 15.26700851132255
STARLINK-30598          
1 58079U 23160E   26065.25002315 -.00006117  00000+0 -21294-3 0  9995
2 58079  43.0003  97.2799 0000887 265.2351 329.2089 15.27584443  5776
STARLINK-30603          
1 58080U 23160F   26065.14151385 -.00000552  00000+0 -10846-4 0  9996
2 58080  43.0055  97.8876 0003087 305.5444  54.5119 15.26733335132401
STARLINK-30602          
1 58081U 23160G   26065.25002315 -.00007650  00000+0 -30983-3 0  9996
2 58081  43.0006  97.4684 0001154 287.4858 221.0296 15.22907701  5784
STARLINK-30610          
1 58082U 23160H   26065.14544038 -.00001154  00000+0 -33339-4 0  9990
2 58082  43.0031  97.9120 0001531 278.4061  81.6617 15.26737829132401
STARLINK-30551          
1 58083U 23160J   26065.14157225 -.00000461  00000+0 -19028-4 0  9998
2 58083  42.9997  99.5739 0001173 278.4246  81.6463 15.02539022132387
STARLINK-30586          
1 58084U 23160K   26065.13824150 -.00001660  00000+0 -10788-3 0  9991
2 58084  43.0018  99.5563 0000534 251.4291 108.6493 15.02541040132386
STARLINK-30609          
1 58085U 23160L   26065.06843241 -.00000116  00000+0  65114-5 0  9995
2 58085  43.0022  99.8890 0001422 271.1621  88.9058 15.02534581132379
STARLINK-30583          
1 58086U 23160M   26065.19804419 -.00004433  00000+0 -31330-3 0  9992
2 58086  43.0016  99.1425 0001625 267.1528  92.9128 15.02535192132390
STARLINK-30557          
1 58087U 23160N   26065.19695863 -.00000500  00000+0 -21968-4 0  9992
2 58087  42.9998  99.1342 0000401 234.4788 125.6017 15.02527013132396
STARLINK-30591          
1 58088U 23160P   26065.12120645 -.00000790  00000+0 -19793-4 0  9991
2 58088  43.0016  97.7286 0000989 269.3348  90.7389 15.26739530132402
STARLINK-30584          
1 58089U 23160Q   26065.25002315 -.00003592  00000+0 -12120-3 0  9998
2 58089  43.0035  97.1880 0000772 260.5945   9.3169 15.27545710  5771
